     3.04           N: GNSS NAV DATA    G: GPS              RINEX VERSION / TYPE
cnvtToRINEX 3.14.0  convertToRINEX OPR  20250615 162114 UTC PGM / RUN BY / DATE 
----------------------------------------------------------- COMMENT             
GPSA   0.1583D-07  0.2235D-07 -0.1192D-06 -0.1192D-06       IONOSPHERIC CORR    
GPSB   0.1167D+06  0.1638D+06 -0.1311D+06 -0.4588D+06       IONOSPHERIC CORR    
GPUT  0.1862645149D-08 0.000000000D+00 233472 2371          TIME SYSTEM CORR    
    18                                                      LEAP SECONDS        
                                                            END OF HEADER       
G 1 2025 06 15 16 00 00 0.292059499770D-03 0.103455022327D-10 0.000000000000D+00
     0.580000000000D+02 0.926562500000D+02 0.463305012799D-08-0.304044377802D+01
     0.484287738800D-05 0.568305025809D-03 0.592507421970D-05 0.515371972656D+04
     0.576000000000D+05-0.521540641785D-07 0.149341303673D+01-0.130385160446D-07
     0.959213243310D+00 0.264593750000D+03 0.230844784892D+00-0.815212528303D-08
     0.150720563831D-09 0.100000000000D+01 0.237100000000D+04 0.000000000000D+00
     0.200000000000D+01 0.000000000000D+00-0.884756445885D-08 0.314000000000D+03
     0.526380000000D+05 0.400000000000D+01 0.000000000000D+00 0.000000000000D+00
G19 2025 06 15 16 00 00 0.638042576611D-03 0.341060513165D-11 0.000000000000D+00
     0.870000000000D+02 0.376875000000D+02 0.447661504041D-08 0.168265576251D+00
     0.195205211639D-05 0.106550368946D-01 0.941567122936D-05 0.515364320374D+04
     0.576000000000D+05 0.111758708954D-06 0.471245126851D+00-0.484287738800D-07
     0.962640943756D+00 0.200343750000D+03 0.279355750830D+01-0.801104797802D-08
    -0.246081678861D-09 0.100000000000D+01 0.237100000000D+04 0.000000000000D+00
     0.200000000000D+01 0.000000000000D+00-0.153668224812D-07 0.870000000000D+02
     0.504180000000D+05 0.400000000000D+01 0.000000000000D+00 0.000000000000D+00
G28 2025 06 15 16 00 00-0.623561441898D-03-0.375166564481D-11 0.000000000000D+00
     0.184000000000D+03-0.137500000000D+02 0.435410993758D-08 0.201790248025D+01
    -0.637024641037D-06 0.294444267638D-03 0.956095755100D-05 0.515362656021D+04
     0.576000000000D+05 0.260770320892D-07-0.175489740901D+01-0.335276126862D-07
     0.961145406993D+00 0.197156250000D+03 0.101420033283D+00-0.782496879850D-08
     0.463947896721D-09 0.100000000000D+01 0.237100000000D+04 0.000000000000D+00
     0.200000000000D+01 0.000000000000D+00-0.931322574615D-08 0.952000000000D+03
     0.526380000000D+05 0.400000000000D+01 0.000000000000D+00 0.000000000000D+00
G 4 2025 06 15 16 00 00 0.579017214477D-03 0.443378667114D-11 0.000000000000D+00
     0.229000000000D+03-0.997500000000D+02 0.405731186047D-08-0.198496669810D+01
    -0.522658228874D-05 0.330245937221D-02 0.854954123497D-05 0.515361727905D+04
     0.576000000000D+05-0.651925802231D-07-0.273667285311D+01-0.223517417908D-07
     0.968283629448D+00 0.218781250000D+03-0.291202685848D+01-0.775782314447D-08
    -0.171435712414D-10 0.100000000000D+01 0.237100000000D+04 0.000000000000D+00
     0.200000000000D+01 0.000000000000D+00-0.465661287308D-08 0.997000000000D+03
     0.504180000000D+05 0.400000000000D+01 0.000000000000D+00 0.000000000000D+00
G 9 2025 06 15 16 00 00 0.684896484017D-03 0.886757334229D-11 0.000000000000D+00
     0.770000000000D+02-0.948125000000D+02 0.427517807833D-08-0.111948863165D+01
    -0.499375164509D-05 0.314406992402D-02 0.820122659206D-05 0.515370118904D+04
     0.576000000000D+05-0.614672899246D-07-0.279903392458D+01 0.931322574615D-08
     0.962248137086D+00 0.221125000000D+03 0.199695866477D+01-0.797676083554D-08
    -0.778603860547D-10 0.100000000000D+01 0.237100000000D+04 0.000000000000D+00
     0.200000000000D+01 0.000000000000D+00 0.465661287308D-09 0.770000000000D+02
     0.504180000000D+05 0.400000000000D+01 0.000000000000D+00 0.000000000000D+00
G 3 2025 06 15 16 00 00 0.692968722433D-03-0.227373675443D-12 0.000000000000D+00
     0.900000000000D+02-0.260625000000D+02 0.408016995546D-08 0.135027524800D+01
    -0.153295695782D-05 0.634255469777D-02 0.271201133728D-05 0.515376348686D+04
     0.576000000000D+05-0.147148966789D-06 0.247263585409D+01 0.931322574615D-08
     0.990047764538D+00 0.344031250000D+03 0.117951513748D+01-0.809712299196D-08
    -0.137505727665D-09 0.100000000000D+01 0.237100000000D+04 0.000000000000D+00
     0.200000000000D+01 0.000000000000D+00 0.139698386192D-08 0.900000000000D+02
     0.504180000000D+05 0.400000000000D+01 0.000000000000D+00 0.000000000000D+00
G 6 2025 06 15 16 00 00-0.407521612942D-03-0.172803993337D-10 0.000000000000D+00
     0.840000000000D+02 0.975937500000D+02 0.400266672714D-08 0.262619847312D+01
     0.525452196598D-05 0.333092676010D-02 0.615231692791D-05 0.515358980751D+04
     0.576000000000D+05 0.465661287308D-07 0.143657582105D+01 0.126659870148D-06
     0.988416830317D+00 0.276468750000D+03-0.643422472900D+00-0.783568353053D-08
     0.135362781260D-09 0.100000000000D+01 0.237100000000D+04 0.000000000000D+00
     0.200000000000D+01 0.000000000000D+00 0.372529029846D-08 0.840000000000D+02
     0.526380000000D+05 0.400000000000D+01 0.000000000000D+00 0.000000000000D+00
G 2 2025 06 15 16 00 00-0.144810881466D-03 0.909494701773D-11 0.000000000000D+00
     0.440000000000D+02 0.953750000000D+02 0.451090218290D-08-0.130385821493D+01
     0.497698783875D-05 0.164061816176D-01 0.756047666073D-05 0.515369663239D+04
     0.576000000000D+05-0.337138772011D-06 0.132950173227D+01-0.108033418655D-06
     0.965354434430D+00 0.243062500000D+03-0.973947059319D+00-0.825534386821D-08
     0.233581158164D-09 0.100000000000D+01 0.237100000000D+04 0.000000000000D+00
     0.200000000000D+01 0.000000000000D+00-0.176951289177D-07 0.440000000000D+02
     0.504180000000D+05 0.400000000000D+01 0.000000000000D+00 0.000000000000D+00
G17 2025 06 15 16 00 00 0.233299564570D-03-0.171667124960D-10 0.000000000000D+00
     0.810000000000D+02 0.447812500000D+02 0.437982529445D-08-0.168208841655D+01
     0.257790088654D-05 0.130549222231D-01 0.976026058197D-05 0.515370698929D+04
     0.576000000000D+05-0.223517417908D-06 0.427177740639D+00 0.325962901115D-06
     0.963436914557D+00 0.197406250000D+03-0.121110296351D+01-0.784568394709D-08
    -0.286440502825D-09 0.100000000000D+01 0.237100000000D+04 0.000000000000D+00
     0.200000000000D+01 0.000000000000D+00-0.111758708954D-07 0.810000000000D+02
     0.526380000000D+05 0.400000000000D+01 0.000000000000D+00 0.000000000000D+00
G31 2025 06 15 16 00 00-0.203713774681D-03 0.136424205266D-11 0.000000000000D+00
     0.410000000000D+02-0.475000000000D+01 0.457304762865D-08 0.837326930508D+00
    -0.111758708954D-07 0.105648929020D-01 0.921078026295D-05 0.515367720985D+04
     0.576000000000D+05-0.147148966789D-06-0.170307634047D+01 0.670552253723D-07
     0.953970440424D+00 0.202000000000D+03 0.826873286569D+00-0.804033491222D-08
     0.362515100209D-09 0.100000000000D+01 0.237100000000D+04 0.000000000000D+00
     0.200000000000D+01 0.000000000000D+00-0.135041773319D-07 0.410000000000D+02
     0.526380000000D+05 0.400000000000D+01 0.000000000000D+00 0.000000000000D+00
